[{"OBJECT_NAME":"STARLINK-32237","OBJECT_ID":"2024-144U","EPOCH":"2026-03-09T15:04:55.252128","MEAN_MOTION":15.30189107,"ECCENTRICITY":8.68e-5,"INCLINATION":53.1588,"RA_OF_ASC_NODE":217.1357,"ARG_OF_PERICENTER":58.8234,"MEAN_ANOMALY":301.2851,"EPHEMERIS_TYPE":0,"CLASSIFICATION_TYPE":"U","NORAD_CAT_ID":60443,"ELEMENT_SET_NO":999,"REV_AT_EPOCH":8930,"BSTAR":6.3376e-5,"MEAN_MOTION_DOT":1.518e-5,"MEAN_MOTION_DDOT":0},{"OBJECT_NAME":"OBJECT V","OBJECT_ID":"2025-155V","EPOCH":"2026-03-09T20:35:20.067360","MEAN_MOTION":15.27583301,"ECCENTRICITY":0.00080353,"INCLINATION":97.4485,"RA_OF_ASC_NODE":37.249,"ARG_OF_PERICENTER":152.8264,"MEAN_ANOMALY":207.3397,"EPHEMERIS_TYPE":0,"CLASSIFICATION_TYPE":"U","NORAD_CAT_ID":64895,"ELEMENT_SET_NO":999,"REV_AT_EPOCH":6557,"BSTAR":0.00051002361,"MEAN_MOTION_DOT":0.00013705,"MEAN_MOTION_DDOT":0}]
